NORAD_CAT_ID,OBJECT_NAME,OBJECT_TYPE,EPOCH,MEAN_MOTION,ECCENTRICITY,INCLINATION,RA_OF_ASC_NODE,ARG_OF_PERICENTER,MEAN_ANOMALY,BSTAR,MEAN_MOTION_DOT,MEAN_MOTION_DDOT,TLE_LINE0,TLE_LINE1,TLE_LINE2,SEMIMAJOR_AXIS,PERIOD,APOGEE,PERIGEE,DECAYED
51734.0,STARLINK-3450,PAYLOAD,2024-04-05 15:30:34,15.08854277,0.0001121,53.2181,235.2046,116.6129,243.4978,0.00014083,1.955e-05,0.0,0 STARLINK-3450,1 51734U 22016W   24096.64623608  .00001955  00000-0  14083-3 0  9996,2 51734  53.2181 235.2046 0001121 116.6129 243.4978 15.08854277117424,6917.837,95.437,540.477,538.926,0.0
51734.0,STARLINK-3450,PAYLOAD,2024-04-06 02:38:17,15.08841753,0.0001205,53.2182,233.1238,76.3891,283.7236,0.00012807,1.751e-05,0.0,0 STARLINK-3450,1 51734U 22016W   24097.10992404  .00001751  00000-0  12807-3 0  9997,2 51734  53.2182 233.1238 0001205  76.3891 283.7236 15.08841753118606,6917.875,95.437,540.574,538.906,0.0
51734.0,STARLINK-3450,PAYLOAD,2024-04-06 15:21:23,15.08837902,0.0001647,53.2181,230.7425,94.9032,265.2148,1.5464e-05,-4.2e-07,0.0,0 STARLINK-3450,1 51734U 22016W   24097.63984976 -.00000042  00000-0  15464-4 0  9996,2 51734  53.2181 230.7425 0001647  94.9032 265.2148 15.08837902117572,6917.887,95.438,540.891,538.612,0.0
51734.0,STARLINK-3450,PAYLOAD,2024-04-06 18:32:09,15.08840316,0.0001512,53.218,230.1477,95.2983,264.8182,-4.5404e-05,-1.011e-05,0.0,0 STARLINK-3450,1 51734U 22016W   24097.77232897 -.00001011  00000-0 -45404-4 0  9994,2 51734  53.2180 230.1477 0001512  95.2983 264.8182 15.08840316118704,6917.879,95.438,540.79,538.698,0.0
51734.0,STARLINK-3450,PAYLOAD,2024-04-07 08:50:37,15.08837903,0.0001657,53.2173,227.4714,97.0433,263.0747,-7.6082e-05,-1.499e-05,0.0,0 STARLINK-3450,1 51734U 22016W   24098.36849271 -.00001499  00000-0 -76082-4 0  9996,2 51734  53.2173 227.4714 0001657  97.0433 263.0747 15.08837903117681,6917.887,95.438,540.898,538.606,0.0
51734.0,STARLINK-3450,PAYLOAD,2024-04-08 00:44:29,15.08813875,0.0001721,53.2166,224.4988,103.0955,257.023,0.00035957,5.435e-05,0.0,0 STARLINK-3450,1 51734U 22016W   24099.03090138  .00005435  00000-0  35957-3 0  9998,2 51734  53.2166 224.4988 0001721 103.0955 257.0230 15.08813875118898,6917.96,95.439,541.016,538.635,0.0
51734.0,STARLINK-3450,PAYLOAD,2024-04-08 08:41:24,15.08837267,0.0001647,53.2152,223.012,93.2108,266.9073,0.000145,2.02e-05,0.0,0 STARLINK-3450,1 51734U 22016W   24099.36209057  .00002020  00000-0  14500-3 0  9994,2 51734  53.2152 223.0120 0001647  93.2108 266.9073 15.08837267118944,6917.889,95.438,540.893,538.614,0.0
51734.0,STARLINK-3450,PAYLOAD,2024-04-08 15:02:56,15.08842986,0.0001657,53.2149,221.8227,92.0499,268.0683,0.00018517,2.66e-05,0.0,0 STARLINK-3450,1 51734U 22016W   24099.62704692  .00002660  00000-0  18517-3 0  9990,2 51734  53.2149 221.8227 0001657  92.0499 268.0683 15.08842986117870,6917.871,95.437,540.883,538.59,0.0
51734.0,STARLINK-3450,PAYLOAD,2024-04-09 00:35:15,15.08854452,0.000136,53.2125,220.0399,93.5542,266.5606,-7.4649e-05,-1.476e-05,0.0,0 STARLINK-3450,1 51734U 22016W   24100.02448408 -.00001476  00000-0 -74649-4 0  9992,2 51734  53.2125 220.0399 0001360  93.5542 266.5606 15.08854452119041,6917.836,95.437,540.642,538.76,0.0
51734.0,STARLINK-3450,PAYLOAD,2024-04-09 06:56:48,15.08839617,0.0001334,53.2118,218.8503,94.8146,265.2998,0.00017389,2.481e-05,0.0,0 STARLINK-3450,1 51734U 22016W   24100.28945026  .00002481  00000-0  17389-3 0  9990,2 51734  53.2118 218.8503 0001334  94.8146 265.2998 15.08839617119080,6917.882,95.438,540.669,538.824,0.0
51734.0,STARLINK-3450,PAYLOAD,2024-04-09 14:53:44,15.08840652,0.0001496,53.2145,217.363,91.0544,269.062,0.00013813,1.911e-05,0.0,0 STARLINK-3450,1 51734U 22016W   24100.62065142  .00001911  00000-0  13813-3 0  9995,2 51734  53.2145 217.3630 0001496  91.0544 269.0620 15.08840652118023,6917.878,95.438,540.778,538.708,0.0
51734.0,STARLINK-3450,PAYLOAD,2024-04-10 14:44:31,15.08841716,0.0001514,53.2168,212.9021,88.3569,271.7596,-6.261e-07,-2.98e-06,0.0,0 STARLINK-3450,1 51734U 22016W   24101.61425201 -.00000298  00000-0 -62610-6 0  9992,2 51734  53.2168 212.9021 0001514  88.3569 271.7596 15.08841716118170,6917.875,95.437,540.788,538.693,0.0
51734.0,STARLINK-3450,PAYLOAD,2024-04-10 16:19:54,15.08841215,0.0001492,53.2171,212.6051,88.3789,271.7374,-9.6897e-06,-4.42e-06,0.0,0 STARLINK-3450,1 51734U 22016W   24101.68049225 -.00000442  00000-0 -96897-5 0  9991,2 51734  53.2171 212.6051 0001492  88.3789 271.7374 15.08841215119295,6917.877,95.437,540.774,538.71,0.0
51734.0,STARLINK-3450,PAYLOAD,2024-04-11 14:35:18,15.08847375,0.0001877,53.2188,208.4433,89.9101,270.2106,-0.0001259,-2.292e-05,0.0,0 STARLINK-3450,1 51734U 22016W   24102.60785257 -.00002292  00000-0 -12590-3 0  9997,2 51734  53.2188 208.4433 0001877  89.9101 270.2106 15.08847375118325,6917.858,95.437,541.021,538.424,0.0
51734.0,STARLINK-3450,PAYLOAD,2024-04-12 00:07:37,15.08840996,0.0001318,53.2189,206.6585,85.1541,274.9602,-1.7233e-05,-5.62e-06,0.0,0 STARLINK-3450,1 51734U 22016W   24103.00529323 -.00000562  00000-0 -17233-4 0  9990,2 51734  53.2189 206.6585 0001318  85.1541 274.9602 15.08840996119493,6917.877,95.437,540.654,538.831,0.0
51734.0,STARLINK-3450,PAYLOAD,2024-04-12 14:26:05,15.08837709,0.000155,53.2178,203.9825,87.1951,272.9218,9.4457e-05,1.216e-05,0.0,0 STARLINK-3450,1 51734U 22016W   24103.60145414  .00001216  00000-0  94457-4 0  9999,2 51734  53.2178 203.9825 0001550  87.1951 272.9218 15.08837709118479,6917.887,95.438,540.825,538.68,0.0
51734.0,STARLINK-3450,PAYLOAD,2024-04-13 12:41:29,15.08844344,0.0001462,53.218,199.8198,82.3741,277.7417,0.00012312,1.672e-05,0.0,0 STARLINK-3450,1 51734U 22016W   24104.52881020  .00001672  00000-0  12312-3 0  9996,2 51734  53.2180 199.8198 0001462  82.3741 277.7417 15.08844344119720,6917.867,95.437,540.744,538.721,0.0
51734.0,STARLINK-3450,PAYLOAD,2024-04-14 12:32:16,15.08845591,0.0001503,53.2186,195.3574,79.523,280.5931,5.6246e-05,6.07e-06,0.0,0 STARLINK-3450,1 51734U 22016W   24105.52241131  .00000607  00000-0  56246-4 0  9992,2 51734  53.2186 195.3574 0001503  79.5230 280.5931 15.08845591119876,6917.863,95.437,540.768,538.689,0.0
51734.0,STARLINK-3450,PAYLOAD,2024-04-15 10:47:40,15.08844402,0.000164,53.2195,191.1951,90.4149,269.7031,-5.7247e-05,-1.199e-05,0.0,0 STARLINK-3450,1 51734U 22016W   24106.44977465 -.00001199  00000-0 -57247-4 0  9991,2 51734  53.2195 191.1951 0001640  90.4149 269.7031 15.08844402120010,6917.867,95.437,540.866,538.597,0.0
51734.0,STARLINK-3450,PAYLOAD,2024-04-15 15:33:49,15.08847433,0.0001692,53.2191,190.2982,85.9564,274.1621,-7.3568e-05,-1.459e-05,0.0,0 STARLINK-3450,1 51734U 22016W   24106.64849250 -.00001459  00000-0 -73568-4 0  9996,2 51734  53.2191 190.2982 0001692  85.9564 274.1621 15.08847433118937,6917.858,95.437,540.893,538.552,0.0
51734.0,STARLINK-3450,PAYLOAD,2024-04-16 12:13:49,15.08854413,0.0001584,53.219,186.4389,100.1198,259.9972,0.00018239,2.617e-05,0.0,0 STARLINK-3450,1 51734U 22016W   24107.50960297  .00002617  00000-0  18239-3 0  9995,2 51734  53.2190 186.4389 0001584 100.1198 259.9972 15.08854413120172,6917.836,95.437,540.797,538.606,0.0
51734.0,STARLINK-3450,PAYLOAD,2024-04-17 05:43:04,15.08845494,0.0001396,53.2178,183.1647,82.2118,277.9032,8.2731e-05,1.029e-05,0.0,0 STARLINK-3450,1 51734U 22016W   24108.23825031  .00001029  00000-0  82731-4 0  9997,2 51734  53.2178 183.1647 0001396  82.2118 277.9032 15.08845494120280,6917.864,95.437,540.694,538.763,0.0
51734.0,STARLINK-3450,PAYLOAD,2024-04-17 12:04:36,15.08850132,0.0001442,53.2178,181.9761,85.0318,275.0838,0.00010519,1.387e-05,0.0,0 STARLINK-3450,1 51734U 22016W   24108.50320542  .00001387  00000-0  10519-3 0  9995,2 51734  53.2178 181.9761 0001442  85.0318 275.0838 15.08850132119217,6917.849,95.437,540.712,538.717,0.0
51734.0,STARLINK-3450,PAYLOAD,2024-04-17 21:36:56,15.0883347,0.0001406,53.2177,180.1905,77.2791,282.8358,1.1009e-05,-1.13e-06,0.0,0 STARLINK-3450,1 51734U 22016W   24108.90065875 -.00000113  00000-0  11009-4 0  9997,2 51734  53.2177 180.1905 0001406  77.2791 282.8358 15.08833470119270,6917.9,95.438,540.738,538.793,0.0
51734.0,STARLINK-3450,PAYLOAD,2024-04-18 11:55:25,15.08835991,0.0001447,53.2179,177.5219,103.6275,256.4878,-6.767e-05,-1.365e-05,0.0,0 STARLINK-3450,1 51734U 22016W   24109.49682557 -.00001365  00000-0 -67670-4 0  9990,2 51734  53.2179 177.5219 0001447 103.6275 256.4878 15.08835991119360,6917.893,95.438,540.759,538.757,0.0
51734.0,STARLINK-3450,PAYLOAD,2024-04-19 03:49:17,15.0883583,0.000137,53.2176,174.5419,86.2406,273.8743,-3.7538e-05,-8.85e-06,0.0,0 STARLINK-3450,1 51734U 22016W   24110.15922812 -.00000885  00000-0 -37538-4 0  9992,2 51734  53.2176 174.5419 0001370  86.2406 273.8743 15.08835830120574,6917.893,95.438,540.706,538.81,0.0
51734.0,STARLINK-3450,PAYLOAD,2024-04-19 11:46:11,15.08853751,0.0001528,53.2176,173.0538,81.1114,279.0052,0.00012667,1.729e-05,0.0,0 STARLINK-3450,1 51734U 22016W   24110.49041356  .00001729  00000-0  12667-3 0  9995,2 51734  53.2176 173.0538 0001528  81.1114 279.0052 15.08853751120624,6917.838,95.437,540.76,538.646,0.0
51734.0,STARLINK-3450,PAYLOAD,2024-04-20 03:40:03,15.08835874,0.0001989,53.2178,170.0827,79.1349,280.9867,0.0005536,8.532e-05,0.0,0 STARLINK-3450,1 51734U 22016W   24111.15281589  .00008532  00000-0  55360-3 0  9999,2 51734  53.2178 170.0827 0001989  79.1349 280.9867 15.08835874120724,6917.893,95.438,541.134,538.382,0.0
51734.0,STARLINK-3450,PAYLOAD,2024-04-20 11:37:00,15.08814015,0.000215,53.2173,168.5986,57.468,302.652,-0.00028671,-4.845e-05,0.0,0 STARLINK-3450,1 51734U 22016W   24111.48403416 -.00004845  00000-0 -28671-3 0  9990,2 51734  53.2173 168.5986 0002150  57.4680 302.6520 15.08814015120772,6917.96,95.439,541.312,538.337,0.0
51734.0,STARLINK-3450,PAYLOAD,2024-04-21 13:03:11,15.08815773,0.0001803,53.2177,163.8312,75.0725,285.0466,-0.00024804,-4.231e-05,0.0,0 STARLINK-3450,1 51734U 22016W   24112.54388277 -.00004231  00000-0 -24804-3 0  9998,2 51734  53.2177 163.8312 0001803  75.0725 285.0466 15.08815773119826,6917.954,95.439,541.067,538.572,0.0
